<?xml version="1.0" encoding="UTF-8"?>
<q:quakeml xmlns:q="http://quakeml.org/xmlns/quakeml/1.2" xmlns="http://quakeml.org/xmlns/bed/1.2">
  <eventParameters publicID="smi:org.gfz-potsdam.de/geofon/tx/1539189691.907715">
    <event xmlns:catalog="http://anss.org/xmlns/catalog/0.1" catalog:datasource="tx" catalog:eventsource="tx" catalog:eventid="2018tvwz" catalog:dataid="tx2018tvwz" publicID="smi:org.gfz-potsdam.de/geofon/texnet2018tvwz">
      <stationMagnitude publicID="smi:org.gfz-potsdam.de/geofon/StationMagnitude/20181010143511.71766.28592">
        <originID>smi:org.gfz-potsdam.de/geofon/NLL.20181010143503.586685.28535</originID>
        <mag>
          <value>2.177840221</value>
        </mag>
        <type>MLv</type>
        <amplitudeID>smi:org.gfz-potsdam.de/geofon/Amplitude/20181010135038.011744.13217</amplitudeID>
        <waveformID networkCode="TX" stationCode="MNHN" locationCode="00" channelCode="HHZ"/>
        <creationInfo>
          <agencyID>TX</agencyID>
          <author>Tricia</author>
          <creationTime>2018-10-10T14:35:11.717669Z</creationTime>
        </creationInfo>
      </stationMagnitude>
      <stationMagnitude publicID="smi:org.gfz-potsdam.de/geofon/StationMagnitude/20181010143511.717763.28593">
        <originID>smi:org.gfz-potsdam.de/geofon/NLL.20181010143503.586685.28535</originID>
        <mag>
          <value>1.993430466</value>
        </mag>
        <type>MLv</type>
        <amplitudeID>smi:org.gfz-potsdam.de/geofon/Amplitude/20181010135038.132965.13225</amplitudeID>
        <waveformID networkCode="TX" stationCode="VHRN" locationCode="00" channelCode="HHZ"/>
        <creationInfo>
          <agencyID>TX</agencyID>
          <author>Tricia</author>
          <creationTime>2018-10-10T14:35:11.717772Z</creationTime>
        </creationInfo>
      </stationMagnitude>
      <stationMagnitude publicID="smi:org.gfz-potsdam.de/geofon/StationMagnitude/20181010143511.717891.28594">
        <originID>smi:org.gfz-potsdam.de/geofon/NLL.20181010143503.586685.28535</originID>
        <mag>
          <value>2.310071834</value>
        </mag>
        <type>MLv</type>
        <amplitudeID>smi:org.gfz-potsdam.de/geofon/Amplitude/20181010141935.33732.26871</amplitudeID>
        <waveformID networkCode="4T" stationCode="NM03" locationCode="00" channelCode="HHZ"/>
        <creationInfo>
          <agencyID>TX</agencyID>
          <author>Tricia</author>
          <creationTime>2018-10-10T14:35:11.717904Z</creationTime>
        </creationInfo>
      </stationMagnitude>
      <stationMagnitude publicID="smi:org.gfz-potsdam.de/geofon/StationMagnitude/20181010143511.717997.28595">
        <originID>smi:org.gfz-potsdam.de/geofon/NLL.20181010143503.586685.28535</originID>
        <mag>
          <value>2.127906569</value>
        </mag>
        <type>MLv</type>
        <amplitudeID>smi:org.gfz-potsdam.de/geofon/Amplitude/20181010141935.536533.26886</amplitudeID>
        <waveformID networkCode="TX" stationCode="PB05" locationCode="00" channelCode="HHZ"/>
        <creationInfo>
          <agencyID>TX</agencyID>
          <author>Tricia</author>
          <creationTime>2018-10-10T14:35:11.718005Z</creationTime>
        </creationInfo>
      </stationMagnitude>
      <stationMagnitude publicID="smi:org.gfz-potsdam.de/geofon/StationMagnitude/20181010143511.718096.28596">
        <originID>smi:org.gfz-potsdam.de/geofon/NLL.20181010143503.586685.28535</originID>
        <mag>
          <value>2.009895283</value>
        </mag>
        <type>MLv</type>
        <amplitudeID>smi:org.gfz-potsdam.de/geofon/Amplitude/20181010141935.509534.26884</amplitudeID>
        <waveformID networkCode="TX" stationCode="PB03" locationCode="00" channelCode="HHZ"/>
        <creationInfo>
          <agencyID>TX</agencyID>
          <author>Tricia</author>
          <creationTime>2018-10-10T14:35:11.718105Z</creationTime>
        </creationInfo>
      </stationMagnitude>
      <stationMagnitude publicID="smi:org.gfz-potsdam.de/geofon/StationMagnitude/20181010143511.718194.28597">
        <originID>smi:org.gfz-potsdam.de/geofon/NLL.20181010143503.586685.28535</originID>
        <mag>
          <value>2.200730984</value>
        </mag>
        <type>MLv</type>
        <amplitudeID>smi:org.gfz-potsdam.de/geofon/Amplitude/20181010141935.502457.26882</amplitudeID>
        <waveformID networkCode="TX" stationCode="PB01" locationCode="00" channelCode="HHZ"/>
        <creationInfo>
          <agencyID>TX</agencyID>
          <author>Tricia</author>
          <creationTime>2018-10-10T14:35:11.718202Z</creationTime>
        </creationInfo>
      </stationMagnitude>
      <stationMagnitude publicID="smi:org.gfz-potsdam.de/geofon/StationMagnitude/20181010143511.71829.28598">
        <originID>smi:org.gfz-potsdam.de/geofon/NLL.20181010143503.586685.28535</originID>
        <mag>
          <value>2.138374756</value>
        </mag>
        <type>MLv</type>
        <amplitudeID>smi:org.gfz-potsdam.de/geofon/Amplitude/20181010141935.656497.26892</amplitudeID>
        <waveformID networkCode="TX" stationCode="PECS" locationCode="00" channelCode="HHZ"/>
        <creationInfo>
          <agencyID>TX</agencyID>
          <author>Tricia</author>
          <creationTime>2018-10-10T14:35:11.718299Z</creationTime>
        </creationInfo>
      </stationMagnitude>
      <stationMagnitude publicID="smi:org.gfz-potsdam.de/geofon/StationMagnitude/20181010143511.718387.28599">
        <originID>smi:org.gfz-potsdam.de/geofon/NLL.20181010143503.586685.28535</originID>
        <mag>
          <value>1.957230105</value>
        </mag>
        <type>MLv</type>
        <amplitudeID>smi:org.gfz-potsdam.de/geofon/Amplitude/20181010141935.364451.26876</amplitudeID>
        <waveformID networkCode="TX" stationCode="ALPN" locationCode="00" channelCode="HHZ"/>
        <creationInfo>
          <agencyID>TX</agencyID>
          <author>Tricia</author>
          <creationTime>2018-10-10T14:35:11.718395Z</creationTime>
        </creationInfo>
      </stationMagnitude>
      <stationMagnitude publicID="smi:org.gfz-potsdam.de/geofon/StationMagnitude/20181010143511.718529.28600">
        <originID>smi:org.gfz-potsdam.de/geofon/NLL.20181010143503.586685.28535</originID>
        <mag>
          <value>2.10789001</value>
        </mag>
        <type>MLv</type>
        <amplitudeID>smi:org.gfz-potsdam.de/geofon/Amplitude/20181010141935.374865.26878</amplitudeID>
        <waveformID networkCode="TX" stationCode="ODSA" locationCode="00" channelCode="HHZ"/>
        <creationInfo>
          <agencyID>TX</agencyID>
          <author>Tricia</author>
          <creationTime>2018-10-10T14:35:11.718543Z</creationTime>
        </creationInfo>
      </stationMagnitude>
      <stationMagnitude publicID="smi:org.gfz-potsdam.de/geofon/StationMagnitude/20181010143511.718638.28601">
        <originID>smi:org.gfz-potsdam.de/geofon/NLL.20181010143503.586685.28535</originID>
        <mag>
          <value>2.190657824</value>
        </mag>
        <type>MLv</type>
        <amplitudeID>smi:org.gfz-potsdam.de/geofon/Amplitude/20181010141935.318515.26870</amplitudeID>
        <waveformID networkCode="4T" stationCode="NM02" locationCode="00" channelCode="HHZ"/>
        <creationInfo>
          <agencyID>TX</agencyID>
          <author>Tricia</author>
          <creationTime>2018-10-10T14:35:11.718646Z</creationTime>
        </creationInfo>
      </stationMagnitude>
      <stationMagnitude publicID="smi:org.gfz-potsdam.de/geofon/StationMagnitude/20181010143511.718737.28602">
        <originID>smi:org.gfz-potsdam.de/geofon/NLL.20181010143503.586685.28535</originID>
        <mag>
          <value>2.585481174</value>
        </mag>
        <type>MLv</type>
        <amplitudeID>smi:org.gfz-potsdam.de/geofon/Amplitude/20181010141935.355731.26874</amplitudeID>
        <waveformID networkCode="SC" stationCode="HTMS" locationCode="00" channelCode="EHZ"/>
        <creationInfo>
          <agencyID>TX</agencyID>
          <author>Tricia</author>
          <creationTime>2018-10-10T14:35:11.718745Z</creationTime>
        </creationInfo>
      </stationMagnitude>
      <stationMagnitude publicID="smi:org.gfz-potsdam.de/geofon/StationMagnitude/20181010143511.718833.28603">
        <originID>smi:org.gfz-potsdam.de/geofon/NLL.20181010143503.586685.28535</originID>
        <mag>
          <value>2.304423864</value>
        </mag>
        <type>MLv</type>
        <amplitudeID>smi:org.gfz-potsdam.de/geofon/Amplitude/20181010141935.724496.26894</amplitudeID>
        <waveformID networkCode="TX" stationCode="SAND" locationCode="00" channelCode="HHZ"/>
        <creationInfo>
          <agencyID>TX</agencyID>
          <author>Tricia</author>
          <creationTime>2018-10-10T14:35:11.718842Z</creationTime>
        </creationInfo>
      </stationMagnitude>
      <stationMagnitude publicID="smi:org.gfz-potsdam.de/geofon/StationMagnitude/20181010143511.718929.28604">
        <originID>smi:org.gfz-potsdam.de/geofon/NLL.20181010143503.586685.28535</originID>
        <mag>
          <value>2.46021697</value>
        </mag>
        <type>MLv</type>
        <amplitudeID>smi:org.gfz-potsdam.de/geofon/Amplitude/20181010141935.478212.26880</amplitudeID>
        <waveformID networkCode="TX" stationCode="OZNA" locationCode="00" channelCode="HHZ"/>
        <creationInfo>
          <agencyID>TX</agencyID>
          <author>Tricia</author>
          <creationTime>2018-10-10T14:35:11.718937Z</creationTime>
        </creationInfo>
      </stationMagnitude>
      <stationMagnitude publicID="smi:org.gfz-potsdam.de/geofon/StationMagnitude/20181010143511.719024.28605">
        <originID>smi:org.gfz-potsdam.de/geofon/NLL.20181010143503.586685.28535</originID>
        <mag>
          <value>2.228737963</value>
        </mag>
        <type>MLv</type>
        <amplitudeID>smi:org.gfz-potsdam.de/geofon/Amplitude/20181010141935.738939.26896</amplitudeID>
        <waveformID networkCode="US" stationCode="MNTX" locationCode="00" channelCode="BHZ"/>
        <creationInfo>
          <agencyID>TX</agencyID>
          <author>Tricia</author>
          <creationTime>2018-10-10T14:35:11.719032Z</creationTime>
        </creationInfo>
      </stationMagnitude>
      <stationMagnitude publicID="smi:org.gfz-potsdam.de/geofon/StationMagnitude/20181010143511.719148.28606">
        <originID>smi:org.gfz-potsdam.de/geofon/NLL.20181010143503.586685.28535</originID>
        <mag>
          <value>2.558415643</value>
        </mag>
        <type>MLv</type>
        <amplitudeID>smi:org.gfz-potsdam.de/geofon/Amplitude/20181010141935.353416.26873</amplitudeID>
        <waveformID networkCode="SC" stationCode="DAG" locationCode="00" channelCode="EHZ"/>
        <creationInfo>
          <agencyID>TX</agencyID>
          <author>Tricia</author>
          <creationTime>2018-10-10T14:35:11.719162Z</creationTime>
        </creationInfo>
      </stationMagnitude>
      <stationMagnitude publicID="smi:org.gfz-potsdam.de/geofon/StationMagnitude/20181010143511.719254.28607">
        <originID>smi:org.gfz-potsdam.de/geofon/NLL.20181010143503.586685.28535</originID>
        <mag>
          <value>2.988878729</value>
        </mag>
        <type>MLv</type>
        <amplitudeID>smi:org.gfz-potsdam.de/geofon/Amplitude/20181010141935.350434.26872</amplitudeID>
        <waveformID networkCode="SC" stationCode="CPRX" locationCode="00" channelCode="EHZ"/>
        <creationInfo>
          <agencyID>TX</agencyID>
          <author>Tricia</author>
          <creationTime>2018-10-10T14:35:11.719262Z</creationTime>
        </creationInfo>
      </stationMagnitude>
      <stationMagnitude publicID="smi:org.gfz-potsdam.de/geofon/StationMagnitude/20181010143511.719354.28608">
        <originID>smi:org.gfz-potsdam.de/geofon/NLL.20181010143503.586685.28535</originID>
        <mag>
          <value>2.070797294</value>
        </mag>
        <type>MLv</type>
        <amplitudeID>smi:org.gfz-potsdam.de/geofon/Amplitude/20181010141935.592328.26890</amplitudeID>
        <waveformID networkCode="TX" stationCode="PB11" locationCode="00" channelCode="HHZ"/>
        <creationInfo>
          <agencyID>TX</agencyID>
          <author>Tricia</author>
          <creationTime>2018-10-10T14:35:11.719362Z</creationTime>
        </creationInfo>
      </stationMagnitude>
      <amplitude publicID="smi:org.gfz-potsdam.de/geofon/Amplitude/20181010141935.533553.26885">
        <type>ML</type>
        <genericAmplitude>
          <value>5.454036983</value>
          <lowerUncertainty>1.648739012</lowerUncertainty>
          <upperUncertainty>1.648739012</upperUncertainty>
        </genericAmplitude>
        <timeWindow>
          <reference>2018-10-10T08:39:06.35Z</reference>
          <begin>-9.499999</begin>
          <end>30.91</end>
        </timeWindow>
        <pickID>smi:org.gfz-potsdam.de/geofon/Pick/20181010140821.667074.26371</pickID>
        <waveformID networkCode="TX" stationCode="PB05" locationCode="00" channelCode="HH"/>
        <creationInfo>
          <agencyID>TX</agencyID>
          <author>Tricia</author>
          <creationTime>2018-10-10T14:19:35.533612Z</creationTime>
        </creationInfo>
      </amplitude>
      <stationMagnitude publicID="smi:org.gfz-potsdam.de/geofon/StationMagnitude/20181010143547.349203.28627">
        <originID>smi:org.gfz-potsdam.de/geofon/NLL.20181010143503.586685.28535</originID>
        <mag>
          <value>2.311888814</value>
        </mag>
        <type>ML</type>
        <amplitudeID>smi:org.gfz-potsdam.de/geofon/Amplitude/20181010141935.533553.26885</amplitudeID>
        <waveformID networkCode="TX" stationCode="PB05" locationCode="00" channelCode="HH"/>
        <creationInfo>
          <agencyID>TX</agencyID>
          <author>Tricia</author>
          <creationTime>2018-10-10T14:35:47.349216Z</creationTime>
        </creationInfo>
      </stationMagnitude>
      <amplitude publicID="smi:org.gfz-potsdam.de/geofon/Amplitude/20181010141935.507056.26883">
        <type>ML</type>
        <genericAmplitude>
          <value>3.597050649</value>
          <lowerUncertainty>0.3837860255</lowerUncertainty>
          <upperUncertainty>0.3837860255</upperUncertainty>
        </genericAmplitude>
        <timeWindow>
          <reference>2018-10-10T08:39:07.415Z</reference>
          <begin>-9.604999</begin>
          <end>31.785</end>
        </timeWindow>
        <pickID>smi:org.gfz-potsdam.de/geofon/Pick/20181010140821.66724.26373</pickID>
        <waveformID networkCode="TX" stationCode="PB03" locationCode="00" channelCode="HH"/>
        <creationInfo>
          <agencyID>TX</agencyID>
          <author>Tricia</author>
          <creationTime>2018-10-10T14:19:35.507086Z</creationTime>
        </creationInfo>
      </amplitude>
      <stationMagnitude publicID="smi:org.gfz-potsdam.de/geofon/StationMagnitude/20181010143547.349528.28628">
        <originID>smi:org.gfz-potsdam.de/geofon/NLL.20181010143503.586685.28535</originID>
        <mag>
          <value>2.224361766</value>
        </mag>
        <type>ML</type>
        <amplitudeID>smi:org.gfz-potsdam.de/geofon/Amplitude/20181010141935.507056.26883</amplitudeID>
        <waveformID networkCode="TX" stationCode="PB03" locationCode="00" channelCode="HH"/>
        <creationInfo>
          <agencyID>TX</agencyID>
          <author>Tricia</author>
          <creationTime>2018-10-10T14:35:47.349543Z</creationTime>
        </creationInfo>
      </stationMagnitude>
      <amplitude publicID="smi:org.gfz-potsdam.de/geofon/Amplitude/20181010143547.348661.28626">
        <type>ML</type>
        <genericAmplitude>
          <value>0.3449678684</value>
          <lowerUncertainty>0.02372992219</lowerUncertainty>
          <upperUncertainty>0.02372992219</upperUncertainty>
        </genericAmplitude>
        <timeWindow>
          <reference>2018-10-10T08:39:17.45Z</reference>
          <begin>-4.259999</begin>
          <end>4.72</end>
        </timeWindow>
        <pickID>smi:org.gfz-potsdam.de/geofon/Pick/20181010140821.667313.26375</pickID>
        <waveformID networkCode="TX" stationCode="PB08" locationCode="00" channelCode="HH"/>
        <evaluationMode>manual</evaluationMode>
        <creationInfo>
          <agencyID>TX</agencyID>
          <author>Tricia</author>
          <creationTime>2018-10-10T14:35:47.348724Z</creationTime>
        </creationInfo>
      </amplitude>
      <stationMagnitude publicID="smi:org.gfz-potsdam.de/geofon/StationMagnitude/20181010143547.349802.28629">
        <originID>smi:org.gfz-potsdam.de/geofon/NLL.20181010143503.586685.28535</originID>
        <mag>
          <value>1.607907511</value>
        </mag>
        <type>ML</type>
        <amplitudeID>smi:org.gfz-potsdam.de/geofon/Amplitude/20181010143547.348661.28626</amplitudeID>
        <waveformID networkCode="TX" stationCode="PB08" locationCode="00" channelCode="HH"/>
        <creationInfo>
          <agencyID>TX</agencyID>
          <author>Tricia</author>
          <creationTime>2018-10-10T14:35:47.349812Z</creationTime>
        </creationInfo>
      </stationMagnitude>
      <amplitude publicID="smi:org.gfz-potsdam.de/geofon/Amplitude/20181010141935.48412.26881">
        <type>ML</type>
        <genericAmplitude>
          <value>0.652987292</value>
          <lowerUncertainty>0.07394158932</lowerUncertainty>
          <upperUncertainty>0.07394158932</upperUncertainty>
        </genericAmplitude>
        <timeWindow>
          <reference>2018-10-10T08:39:20.235Z</reference>
          <begin>-17.984999</begin>
          <end>32.395</end>
        </timeWindow>
        <pickID>smi:org.gfz-potsdam.de/geofon/Pick/20181010140821.667454.26378</pickID>
        <waveformID networkCode="TX" stationCode="PB01" locationCode="00" channelCode="HH"/>
        <creationInfo>
          <agencyID>TX</agencyID>
          <author>Tricia</author>
          <creationTime>2018-10-10T14:19:35.484172Z</creationTime>
        </creationInfo>
      </amplitude>
      <stationMagnitude publicID="smi:org.gfz-potsdam.de/geofon/StationMagnitude/20181010143547.350066.28630">
        <originID>smi:org.gfz-potsdam.de/geofon/NLL.20181010143503.586685.28535</originID>
        <mag>
          <value>1.932408326</value>
        </mag>
        <type>ML</type>
        <amplitudeID>smi:org.gfz-potsdam.de/geofon/Amplitude/20181010141935.48412.26881</amplitudeID>
        <waveformID networkCode="TX" stationCode="PB01" locationCode="00" channelCode="HH"/>
        <creationInfo>
          <agencyID>TX</agencyID>
          <author>Tricia</author>
          <creationTime>2018-10-10T14:35:47.350076Z</creationTime>
        </creationInfo>
      </stationMagnitude>
      <amplitude publicID="smi:org.gfz-potsdam.de/geofon/Amplitude/20181010135038.002039.13216">
        <type>ML</type>
        <genericAmplitude>
          <value>0.2894631922</value>
          <lowerUncertainty>0.02952340837</lowerUncertainty>
          <upperUncertainty>0.02952340837</upperUncertainty>
        </genericAmplitude>
        <timeWindow>
          <reference>2018-10-10T08:39:26.125Z</reference>
          <begin>-21.584999</begin>
          <end>33.625</end>
        </timeWindow>
        <pickID>smi:org.gfz-potsdam.de/geofon/Pick/20181010135021.587066.13190</pickID>
        <waveformID networkCode="TX" stationCode="MNHN" locationCode="00" channelCode="HH"/>
        <creationInfo>
          <agencyID>TX</agencyID>
          <author>peng</author>
          <creationTime>2018-10-10T13:50:38.002069Z</creationTime>
        </creationInfo>
      </amplitude>
      <stationMagnitude publicID="smi:org.gfz-potsdam.de/geofon/StationMagnitude/20181010143547.350379.28631">
        <originID>smi:org.gfz-potsdam.de/geofon/NLL.20181010143503.586685.28535</originID>
        <mag>
          <value>1.707165986</value>
        </mag>
        <type>ML</type>
        <amplitudeID>smi:org.gfz-potsdam.de/geofon/Amplitude/20181010135038.002039.13216</amplitudeID>
